[{"OBJECT_NAME":"SES-19","OBJECT_ID":"2023-038B","EPOCH":"2026-04-25T16:23:30.608160","MEAN_MOTION":1.00273486,"ECCENTRICITY":0.0001684,"INCLINATION":0.0246,"RA_OF_ASC_NODE":283.8124,"ARG_OF_PERICENTER":104.3069,"MEAN_ANOMALY":296.5575,"EPHEMERIS_TYPE":0,"CLASSIFICATION_TYPE":"U","NORAD_CAT_ID":55971,"ELEMENT_SET_NO":999,"REV_AT_EPOCH":1156,"BSTAR":0,"MEAN_MOTION_DOT":7.4e-7,"MEAN_MOTION_DDOT":0},{"OBJECT_NAME":"INTELSAT 40E (IS-40E)","OBJECT_ID":"2023-052A","EPOCH":"2026-04-25T09:45:14.470272","MEAN_MOTION":1.00271443,"ECCENTRICITY":9.01e-5,"INCLINATION":0.0173,"RA_OF_ASC_NODE":149.5554,"ARG_OF_PERICENTER":286.9868,"MEAN_ANOMALY":192.187,"EPHEMERIS_TYPE":0,"CLASSIFICATION_TYPE":"U","NORAD_CAT_ID":56174,"ELEMENT_SET_NO":999,"REV_AT_EPOCH":1129,"BSTAR":0,"MEAN_MOTION_DOT":-1.88e-6,"MEAN_MOTION_DDOT":0},{"OBJECT_NAME":"VIASAT-3 F1","OBJECT_ID":"2023-060A","EPOCH":"2026-04-25T04:12:06.180192","MEAN_MOTION":1.00271362,"ECCENTRICITY":0.00012321,"INCLINATION":0.0171,"RA_OF_ASC_NODE":274.2192,"ARG_OF_PERICENTER":170.8334,"MEAN_ANOMALY":102.2692,"EPHEMERIS_TYPE":0,"CLASSIFICATION_TYPE":"U","NORAD_CAT_ID":56370,"ELEMENT_SET_NO":999,"REV_AT_EPOCH":1090,"BSTAR":0,"MEAN_MOTION_DOT":-2.0e-6,"MEAN_MOTION_DDOT":0},{"OBJECT_NAME":"ARCTURUS","OBJECT_ID":"2023-060B","EPOCH":"2026-04-25T19:05:17.288736","MEAN_MOTION":1.00269822,"ECCENTRICITY":0.000161,"INCLINATION":2.6412,"RA_OF_ASC_NODE":80.5861,"ARG_OF_PERICENTER":356.256,"MEAN_ANOMALY":135.8112,"EPHEMERIS_TYPE":0,"CLASSIFICATION_TYPE":"U","NORAD_CAT_ID":56371,"ELEMENT_SET_NO":999,"REV_AT_EPOCH":1093,"BSTAR":0,"MEAN_MOTION_DOT":-7.4e-7,"MEAN_MOTION_DDOT":0},{"OBJECT_NAME":"GS-1","OBJECT_ID":"2023-060C","EPOCH":"2026-04-25T17:26:54.527136","MEAN_MOTION":1.00288618,"ECCENTRICITY":0.0004466,"INCLINATION":2.5914,"RA_OF_ASC_NODE":80.4182,"ARG_OF_PERICENTER":274.3843,"MEAN_ANOMALY":208.1666,"EPHEMERIS_TYPE":0,"CLASSIFICATION_TYPE":"U","NORAD_CAT_ID":56372,"ELEMENT_SET_NO":999,"REV_AT_EPOCH":701,"BSTAR":0,"MEAN_MOTION_DOT":-2.22e-6,"MEAN_MOTION_DDOT":0},{"OBJECT_NAME":"BEIDOU-3 G4","OBJECT_ID":"2023-066A","EPOCH":"2026-04-25T21:07:13.098144","MEAN_MOTION":1.00272617,"ECCENTRICITY":0.0002735,"INCLINATION":0.5587,"RA_OF_ASC_NODE":319.8276,"ARG_OF_PERICENTER":161.4177,"MEAN_ANOMALY":189.5335,"EPHEMERIS_TYPE":0,"CLASSIFICATION_TYPE":"U","NORAD_CAT_ID":56564,"ELEMENT_SET_NO":999,"REV_AT_EPOCH":1086,"BSTAR":0,"MEAN_MOTION_DOT":-2.95e-6,"MEAN_MOTION_DDOT":0},{"OBJECT_NAME":"ARABSAT-7B (BADR-8)","OBJECT_ID":"2023-075A","EPOCH":"2026-04-25T18:52:03.557856","MEAN_MOTION":1.00271014,"ECCENTRICITY":0.0005284,"INCLINATION":0.0795,"RA_OF_ASC_NODE":32.7883,"ARG_OF_PERICENTER":335.782,"MEAN_ANOMALY":154.2418,"EPHEMERIS_TYPE":0,"CLASSIFICATION_TYPE":"U","NORAD_CAT_ID":56757,"ELEMENT_SET_NO":999,"REV_AT_EPOCH":1059,"BSTAR":0,"MEAN_MOTION_DOT":1.31e-6,"MEAN_MOTION_DDOT":0},{"OBJECT_NAME":"NVS-01 (IRNSS-1J)","OBJECT_ID":"2023-076A","EPOCH":"2026-04-25T19:21:30.735072","MEAN_MOTION":1.00268771,"ECCENTRICITY":0.0005507,"INCLINATION":2.2893,"RA_OF_ASC_NODE":246.6037,"ARG_OF_PERICENTER":49.7369,"MEAN_ANOMALY":337.3869,"EPHEMERIS_TYPE":0,"CLASSIFICATION_TYPE":"U","NORAD_CAT_ID":56759,"ELEMENT_SET_NO":999,"REV_AT_EPOCH":1059,"BSTAR":0,"MEAN_MOTION_DOT":-3.52e-6,"MEAN_MOTION_DDOT":0},{"OBJECT_NAME":"NUSANTARA TIGA (SATRIA)","OBJECT_ID":"2023-086A","EPOCH":"2026-04-25T19:26:15.278784","MEAN_MOTION":1.00270636,"ECCENTRICITY":0.0004963,"INCLINATION":0.0474,"RA_OF_ASC_NODE":315.351,"ARG_OF_PERICENTER":23.4332,"MEAN_ANOMALY":312.5984,"EPHEMERIS_TYPE":0,"CLASSIFICATION_TYPE":"U","NORAD_CAT_ID":57045,"ELEMENT_SET_NO":999,"REV_AT_EPOCH":923,"BSTAR":0,"MEAN_MOTION_DOT":-2.49e-6,"MEAN_MOTION_DDOT":0},{"OBJECT_NAME":"H2SAT (HEINRICH HERTZ)","OBJECT_ID":"2023-093A","EPOCH":"2026-04-25T05:03:25.699968","MEAN_MOTION":1.00272205,"ECCENTRICITY":8.76e-5,"INCLINATION":0.0169,"RA_OF_ASC_NODE":205.0936,"ARG_OF_PERICENTER":278.1415,"MEAN_ANOMALY":166.542,"EPHEMERIS_TYPE":0,"CLASSIFICATION_TYPE":"U","NORAD_CAT_ID":57213,"ELEMENT_SET_NO":999,"REV_AT_EPOCH":1038,"BSTAR":0,"MEAN_MOTION_DOT":-1.2e-7,"MEAN_MOTION_DDOT":0},{"OBJECT_NAME":"SYRACUSE 4B","OBJECT_ID":"2023-093B","EPOCH":"2026-04-25T06:44:07.791072","MEAN_MOTION":1.0026938,"ECCENTRICITY":1.18e-5,"INCLINATION":0.0128,"RA_OF_ASC_NODE":217.093,"ARG_OF_PERICENTER":239.7953,"MEAN_ANOMALY":210.9923,"EPHEMERIS_TYPE":0,"CLASSIFICATION_TYPE":"U","NORAD_CAT_ID":57214,"ELEMENT_SET_NO":999,"REV_AT_EPOCH":643,"BSTAR":0,"MEAN_MOTION_DOT":0,"MEAN_MOTION_DDOT":0},{"OBJECT_NAME":"JUPITER 3 (ECHOSTAR 24)","OBJECT_ID":"2023-108A","EPOCH":"2026-04-25T16:06:10.550016","MEAN_MOTION":1.0026998,"ECCENTRICITY":0.0001076,"INCLINATION":0.0177,"RA_OF_ASC_NODE":239.7447,"ARG_OF_PERICENTER":164.4376,"MEAN_ANOMALY":315.8263,"EPHEMERIS_TYPE":0,"CLASSIFICATION_TYPE":"U","NORAD_CAT_ID":57479,"ELEMENT_SET_NO":999,"REV_AT_EPOCH":1011,"BSTAR":0,"MEAN_MOTION_DOT":0,"MEAN_MOTION_DDOT":0},{"OBJECT_NAME":"GALAXY 37 (G-37)","OBJECT_ID":"2023-112A","EPOCH":"2026-04-25T16:25:45.393024","MEAN_MOTION":1.00269886,"ECCENTRICITY":0.0002134,"INCLINATION":0.0146,"RA_OF_ASC_NODE":242.4893,"ARG_OF_PERICENTER":148.3697,"MEAN_ANOMALY":302.2829,"EPHEMERIS_TYPE":0,"CLASSIFICATION_TYPE":"U","NORAD_CAT_ID":57493,"ELEMENT_SET_NO":999,"REV_AT_EPOCH":1001,"BSTAR":0,"MEAN_MOTION_DOT":0,"MEAN_MOTION_DDOT":0},{"OBJECT_NAME":"LUDI TANCE-4 01A","OBJECT_ID":"2023-120A","EPOCH":"2026-04-25T17:27:24.480288","MEAN_MOTION":1.00268021,"ECCENTRICITY":0.0002778,"INCLINATION":15.1343,"RA_OF_ASC_NODE":195.2655,"ARG_OF_PERICENTER":115.8194,"MEAN_ANOMALY":253.9938,"EPHEMERIS_TYPE":0,"CLASSIFICATION_TYPE":"U","NORAD_CAT_ID":57624,"ELEMENT_SET_NO":999,"REV_AT_EPOCH":1002,"BSTAR":0,"MEAN_MOTION_DOT":-2.03e-6,"MEAN_MOTION_DDOT":0},{"OBJECT_NAME":"TJS-10","OBJECT_ID":"2023-169A","EPOCH":"2026-04-25T17:27:39.456000","MEAN_MOTION":1.00459184,"ECCENTRICITY":0.0001488,"INCLINATION":2.4111,"RA_OF_ASC_NODE":81.0857,"ARG_OF_PERICENTER":51.6072,"MEAN_ANOMALY":72.8989,"EPHEMERIS_TYPE":0,"CLASSIFICATION_TYPE":"U","NORAD_CAT_ID":58204,"ELEMENT_SET_NO":999,"REV_AT_EPOCH":901,"BSTAR":0,"MEAN_MOTION_DOT":-2.76e-6,"MEAN_MOTION_DDOT":0},{"OBJECT_NAME":"ZHONGXING-6E","OBJECT_ID":"2023-172A","EPOCH":"2026-04-25T21:00:13.767840","MEAN_MOTION":1.00271063,"ECCENTRICITY":0.0003076,"INCLINATION":0.0477,"RA_OF_ASC_NODE":74.4514,"ARG_OF_PERICENTER":321.8421,"MEAN_ANOMALY":248.1707,"EPHEMERIS_TYPE":0,"CLASSIFICATION_TYPE":"U","NORAD_CAT_ID":58253,"ELEMENT_SET_NO":999,"REV_AT_EPOCH":913,"BSTAR":0,"MEAN_MOTION_DOT":-3.75e-6,"MEAN_MOTION_DDOT":0},{"OBJECT_NAME":"YAOGAN-41","OBJECT_ID":"2023-197A","EPOCH":"2026-04-25T20:01:00.153120","MEAN_MOTION":1.00272943,"ECCENTRICITY":0.001256,"INCLINATION":3.225,"RA_OF_ASC_NODE":312.3636,"ARG_OF_PERICENTER":185.1528,"MEAN_ANOMALY":139.8219,"EPHEMERIS_TYPE":0,"CLASSIFICATION_TYPE":"U","NORAD_CAT_ID":58582,"ELEMENT_SET_NO":999,"REV_AT_EPOCH":879,"BSTAR":0,"MEAN_MOTION_DOT":-3.81e-6,"MEAN_MOTION_DDOT":0},{"OBJECT_NAME":"OVZON-3","OBJECT_ID":"2024-003A","EPOCH":"2026-04-25T19:01:40.137024","MEAN_MOTION":1.00274818,"ECCENTRICITY":4.01e-5,"INCLINATION":0.0112,"RA_OF_ASC_NODE":199.8246,"ARG_OF_PERICENTER":100.9552,"MEAN_ANOMALY":258.1248,"EPHEMERIS_TYPE":0,"CLASSIFICATION_TYPE":"U","NORAD_CAT_ID":58698,"ELEMENT_SET_NO":999,"REV_AT_EPOCH":692,"BSTAR":0,"MEAN_MOTION_DOT":3.7e-7,"MEAN_MOTION_DDOT":0},{"OBJECT_NAME":"INSAT-3DS","OBJECT_ID":"2024-033A","EPOCH":"2026-04-25T19:08:02.025888","MEAN_MOTION":1.00270706,"ECCENTRICITY":0.0001906,"INCLINATION":0.0894,"RA_OF_ASC_NODE":86.6147,"ARG_OF_PERICENTER":297.9188,"MEAN_ANOMALY":198.3543,"EPHEMERIS_TYPE":0,"CLASSIFICATION_TYPE":"U","NORAD_CAT_ID":58990,"ELEMENT_SET_NO":999,"REV_AT_EPOCH":4654,"BSTAR":0,"MEAN_MOTION_DOT":-1.69e-6,"MEAN_MOTION_DDOT":0},{"OBJECT_NAME":"MERAH PUTIH 2","OBJECT_ID":"2024-035A","EPOCH":"2026-04-25T19:16:53.677056","MEAN_MOTION":1.00272112,"ECCENTRICITY":0.000148,"INCLINATION":0.0139,"RA_OF_ASC_NODE":241.7643,"ARG_OF_PERICENTER":172.8404,"MEAN_ANOMALY":201.3887,"EPHEMERIS_TYPE":0,"CLASSIFICATION_TYPE":"U","NORAD_CAT_ID":58995,"ELEMENT_SET_NO":999,"REV_AT_EPOCH":806,"BSTAR":0,"MEAN_MOTION_DOT":-3.71e-6,"MEAN_MOTION_DDOT":0},{"OBJECT_NAME":"TJS-11","OBJECT_ID":"2024-037A","EPOCH":"2026-04-25T21:01:36.136416","MEAN_MOTION":1.00268306,"ECCENTRICITY":0.0005295,"INCLINATION":4.2687,"RA_OF_ASC_NODE":326.4449,"ARG_OF_PERICENTER":79.9155,"MEAN_ANOMALY":243.2602,"EPHEMERIS_TYPE":0,"CLASSIFICATION_TYPE":"U","NORAD_CAT_ID":59020,"ELEMENT_SET_NO":999,"REV_AT_EPOCH":805,"BSTAR":0,"MEAN_MOTION_DOT":-3.88e-6,"MEAN_MOTION_DDOT":0},{"OBJECT_NAME":"HULIANWAN GAOGUI-01 (HG-01)","OBJECT_ID":"2024-040A","EPOCH":"2026-04-25T18:54:10.855296","MEAN_MOTION":1.00273323,"ECCENTRICITY":0.0003887,"INCLINATION":0.0662,"RA_OF_ASC_NODE":323.556,"ARG_OF_PERICENTER":59.2532,"MEAN_ANOMALY":148.1289,"EPHEMERIS_TYPE":0,"CLASSIFICATION_TYPE":"U","NORAD_CAT_ID":59069,"ELEMENT_SET_NO":999,"REV_AT_EPOCH":680,"BSTAR":0,"MEAN_MOTION_DOT":1.42e-6,"MEAN_MOTION_DDOT":0},{"OBJECT_NAME":"EUTELSAT 36D","OBJECT_ID":"2024-059A","EPOCH":"2026-04-24T15:32:03.345216","MEAN_MOTION":1.00271786,"ECCENTRICITY":1.988e-5,"INCLINATION":0.0165,"RA_OF_ASC_NODE":240.1665,"ARG_OF_PERICENTER":56.5772,"MEAN_ANOMALY":184.7886,"EPHEMERIS_TYPE":0,"CLASSIFICATION_TYPE":"U","NORAD_CAT_ID":59346,"ELEMENT_SET_NO":999,"REV_AT_EPOCH":761,"BSTAR":0,"MEAN_MOTION_DOT":1.41e-6,"MEAN_MOTION_DDOT":0},{"OBJECT_NAME":"PAKSAT-MM1","OBJECT_ID":"2024-104A","EPOCH":"2026-04-24T13:50:05.623008","MEAN_MOTION":1.00273984,"ECCENTRICITY":0.00020593,"INCLINATION":0.0162,"RA_OF_ASC_NODE":199.0714,"ARG_OF_PERICENTER":177.0607,"MEAN_ANOMALY":82.1797,"EPHEMERIS_TYPE":0,"CLASSIFICATION_TYPE":"U","NORAD_CAT_ID":59915,"ELEMENT_SET_NO":999,"REV_AT_EPOCH":699,"BSTAR":0,"MEAN_MOTION_DOT":1.39e-6,"MEAN_MOTION_DDOT":0}]
